COSMOS 1892             
1 18421U 87088A   21174.54257468  .00000822  00000-0  39116-4 0  9999
2 18421  82.5006 266.1366 0014025 211.5546 148.4848 15.17675186840821
SL-14 R/B               
1 18749U 88001B   21174.59315809  .00000086  00000-0  74962-5 0  9998
2 18749  82.5138   9.8249 0019440 151.0649 266.5089 14.83263361786884
COSMOS 1933             
1 18958U 88020A   21174.28299419  .00000790  00000-0  55200-4 0  9990
2 18958  82.5296 127.4566 0010924 337.5010  22.5736 15.03941802790814
SL-3 R/B                
1 19046U 88032B   21174.53081262 -.00000362  00000-0 -22204-4 0  9990
2 19046  97.3853 184.7901 0038110  24.3096 335.9916 15.02940834792699
SL-16 R/B               
1 19120U 88039B   21174.27733752 -.00000039  00000-0  40899-5 0  9990
2 19120  71.0135 104.9501 0019758  99.5421 260.7937 14.19220559714264
COSMOS 1953             
1 19210U 88050A   21174.36899479 -.00000007  00000-0 -24573-5 0  9999
2 19210  82.5164  49.7163 0011176 295.0239  64.9827 15.06288979777492
SL-8 R/B                
1 19257U 88053B   21174.57377331  .00000068  00000-0  31601-4 0  9998
2 19257  74.0494  38.5695 0021324 284.8913  98.7567 14.37523676729337
COSMOS 1975             
1 19573U 88093A   21174.54777152  .00000734  00000-0  49406-4 0  9997
2 19573  82.5197   4.6609 0013711 343.0217  17.0549 15.05195000759325
SL-14 R/B               
1 19574U 88093B   21174.58214980  .00000087  00000-0  76290-5 0  9990
2 19574  82.5318 212.9927 0020558 321.5773 154.0940 14.83374285745885
SL-16 R/B               
1 19650U 88102B   21174.41124295 -.00000254  00000-0 -10474-3 0  9995
2 19650  70.9981 169.8572 0012113 113.3992 246.8406 14.15804953683389
INTERCOSMOS 24          
1 20261U 89080A   21174.41783140  .00000123  00000-0  35740-4 0  9998
2 20261  82.6053 140.2228 1201375 311.8615  38.5804 12.56215500450576
SL-14 R/B               
1 20262U 89080C   21174.55819487  .00000074  00000-0  14110-4 0  9991
2 20262  82.5921 196.2064 1237433 150.9222 216.6970 12.48971049445316
DELTA 2 R/B(1)          
1 20303U 89085B   21174.47301853  .00002223  00000-0  69198-4 0  9990
2 20303  35.6399 196.7310 0091510 239.6973 119.4676 15.29248565725394
DELTA 1 R/B             
1 20323U 89089B   21174.54953863  .00000053  00000-0  22723-4 0  9990
2 20323  97.1219 267.9293 0072730 142.7651 217.8621 14.48405871646582
ARIANE 40 R/B           
1 20443U 90005H   21174.42168145  .00000032  00000-0  25234-4 0  9998
2 20443  98.5282 240.6343 0009538 322.7392  37.3133 14.38130769645438
DELTA 2 R/B(1)          
1 20453U 90008B   21174.50303146  .00001135  00000-0  64917-4 0  9999
2 20453  35.6232 226.7578 0276796 164.7229 196.2046 14.86557687666421
COSMOS 2058             
1 20465U 90010A   21174.54891696  .00000323  00000-0  24816-4 0  9993
2 20465  82.4897 276.1954 0016158  35.3107 324.9183 14.98225834683880
SL-14 R/B               
1 20466U 90010B   21174.23187457  .00000072  00000-0  61493-5 0  9997
2 20466  82.5039  79.7785 0020003 195.3915 164.6693 14.81427244673624
SL-14 R/B               
1 20511U 90018B   21174.55334253  .00000084  00000-0  80653-5 0  9991
2 20511  82.5230  27.5157 0017047 345.8927  76.4934 14.80081926668007
HST                     
1 20580U 90037B   21174.01388954  .00000510  00000-0  19855-4 0  9995
2 20580  28.4710  28.2868 0002824 121.6322  27.1052 15.09664842511881
SL-16 R/B               
1 20625U 90046B   21174.58797895 -.00000323  00000-0 -14288-3 0  9993
2 20625  70.9996 309.1916 0013031  29.5382 330.6474 14.14669956605103
COSMOS 2084             
1 20663U 90055A   21174.31318309  .00000004  00000-0  18679-4 0  9998
2 20663  62.7948   9.7681 0071010   7.8219 352.3964 14.92260864678692
SL-6 R/B(2)             
1 20666U 90055D   21174.57207120 -.00000047  00000-0  14082-4 0  9999
2 20666  62.7853 284.3942 0099093  35.6160 325.1492 14.92507674680685
SL-8 R/B                
1 20775U 90078B   21174.52901178  .00003355  00000-0  15852-3 0  9993
2 20775  82.9270 280.2779 0568361 123.8590 241.8038 14.35956488558965
SL-8 R/B                
1 21088U 91006B   21174.57625924  .00000110  00000-0  95541-4 0  9990
2 21088  82.9422   9.2969 0022791 168.7086 245.6601 13.77168856527291
OKEAN-3                 
1 21397U 91039A   21174.53996061  .00000303  00000-0  26533-4 0  9997
2 21397  82.5210 183.9199 0018070  13.0738 347.0947 14.93111391607617
COSMOS 2151             
1 21422U 91042A   21174.41866402  .00000203  00000-0  17278-4 0  9997
2 21422  82.5008 289.7224 0015663  75.6689 284.6268 14.92265327606157
SL-14 R/B               
1 21423U 91042B   21174.54943274  .00000091  00000-0  89148-5 0  9996
2 21423  82.4940  30.0668 0018894 120.9632 239.3441 14.79831346598540
ERS-1                   
1 21574U 91050A   21174.48135563  .00000014  00000-0  19652-4 0  9996
2 21574  98.6480 135.0235 0031745 264.1108  95.6460 14.37801873568435
ARIANE 40 R/B           
1 21610U 91050F   21174.21726566  .00000015  00000-0  18077-4 0  9998
2 21610  98.4229 244.8735 0002573 205.0263 219.7241 14.40952658571096
INTERCOSMOS 25          
1 21819U 91086A   21174.49570816 -.00000146  00000-0 -32929-4 0  9992
2 21819  82.5854 263.9335 1515138 201.2386 151.8711 12.05257884288983
SL-8 R/B                
1 21876U 92008B   21174.55631354  .00000036  00000-0  21490-4 0  9999
2 21876  82.9272 106.6023 0033341 257.6369 275.6639 13.75680640472894
SL-8 R/B                
1 21938U 92020B   21174.57675330  .00000119  00000-0  10781-3 0  9998
2 21938  82.9298 351.0343 0030415  59.6256   3.8002 13.75287354464684
COSMOS 2219             
1 22219U 92076A   21174.56544230 -.00000048  00000-0 -37749-6 0  9994
2 22219  71.0618  12.4554 0020291 304.6417  55.2792 14.13669023475259
SL-16 R/B               
1 22220U 92076B   21174.54479345 -.00000247  00000-0 -99938-4 0  9995
2 22220  70.9990 210.4075 0013732 206.2664 262.0595 14.16470729478228
COSMOS 2221             
1 22236U 92080A   21174.28854370  .00000191  00000-0  18007-4 0  9997
2 22236  82.5081 113.2250 0016858 165.2232 194.9482 14.88063836524414
SL-16 R/B               
1 22285U 92093B   21174.56425173 -.00000166  00000-0 -61067-4 0  9999
2 22285  71.0224  13.9521 0002945  19.2547 340.8687 14.15064725469804
COSMOS 2228             
1 22286U 92094A   21174.18602558  .00000202  00000-0  19103-4 0  9996
2 22286  82.5208  70.0038 0019636 291.5840  68.3285 14.88288192519580
SL-16 R/B               
1 22566U 93016B   21174.54163126  .00000288  00000-0  17309-3 0  9994
2 22566  71.0067 226.7957 0008572  54.7622 305.4301 14.14972831458823
COSMOS 2242             
1 22626U 93024A   21174.53668868  .00000210  00000-0  20132-4 0  9996
2 22626  82.5223  97.9541 0017407 290.8594  69.0759 14.88139238524029
SL-16 R/B               
1 22803U 93059B   21174.55268204 -.00000220  00000-0 -85680-4 0  9995
2 22803  70.9911  37.2002 0019036 306.4552  53.4817 14.16838241435864
ARIANE 40 R/B           
1 22830U 93061H   21174.53299309 -.00000008  00000-0  13921-4 0  9998
2 22830  98.7130 232.1035 0010022 318.4724  41.5697 14.31483829447915
COSMOS 2278             
1 23087U 94023A   21174.41169162 -.00000240  00000-0 -10173-3 0  9996
2 23087  71.0512 172.2763 0007546 148.9417 211.2153 14.13824365401627
SL-16 R/B               
1 23088U 94023B   21174.47807322  .00000005  00000-0  27328-4 0  9998
2 23088  71.0015  82.3631 0003013 349.7176  10.3884 14.14695042402785
SL-16 R/B               
1 23343U 94074B   21174.60342633  .00000033  00000-0  11903-4 0  9995
2 23343  97.9454 229.1440 0007769  43.8236  78.8864 14.76885818433199
SL-16 R/B               
1 23405U 94077B   21174.56070130 -.00000028  00000-0  10225-4 0  9993
2 23405  70.9838  10.1543 0004825 264.0196  96.0377 14.15243717372854
ERS-2                   
1 23560U 95021A   21174.57085870  .00000949  00000-0  42936-4 0  9998
2 23560  98.5475  25.5613 0003477   9.7067 350.4233 15.23988970398628
ARIANE 40+ R/B          
1 23561U 95021B   21174.60869035  .00000039  00000-0  27889-4 0  9996
2 23561  98.6737 224.4717 0006092 225.6146 250.1268 14.38031827371911
SL-16 R/B               
1 23705U 95058B   21174.47359424 -.00000287  00000-0 -12294-3 0  9997
2 23705  71.0195 190.4976 0014185 228.6528 131.3375 14.15151127324460
SL-16 R/B               
1 24298U 96051B   21174.53195190 -.00000120  00000-0 -38391-4 0  9997
2 24298  70.8281 208.1246 0015773 171.2721 188.8676 14.12438424278756
ORBVIEW 2 (SEASTAR)     
1 24883U 97037A   21174.29178482  .00000032  00000-0  27784-4 0  9994
2 24883  98.6432 292.3628 0003542  92.5508 267.6082 14.33619205262100
SL-16 R/B               
1 25400U 98043G   21174.39963048 -.00000026  00000-0  76112-5 0  9993
2 25400  98.6406 110.1573 0009535 340.9360  19.1462 14.25477898193866
SL-16 R/B               
1 25407U 98045B   21174.46997240  .00000092  00000-0  70852-4 0  9997
2 25407  71.0094 197.8500 0005981 141.2639 218.8914 14.15837199183597
ISS (ZARYA)             
1 25544U 98067A   21174.55059851  .00000996  00000-0  26235-4 0  9999
2 25544  51.6435 311.2502 0003363 123.3372 312.3714 15.49013937289581
CZ-4B R/B               
1 25732U 99025C   21174.57712568  .00000002  00000-0  22817-4 0  9996
2 25732  98.9013 211.0483 0036487 231.2491 244.8498 14.17694792144402
OKEAN-O                 
1 25860U 99039A   21174.56152751  .00000064  00000-0  16765-4 0  9997
2 25860  98.1818 205.3945 0001872  99.6963 260.4458 14.76741194180288
SL-16 R/B               
1 25861U 99039B   21174.58971602  .00000034  00000-0  12199-4 0  9998
2 25861  98.2033 190.0792 0016651  49.3675  61.9320 14.78646287182465
DELTA 2 R/B             
1 25876U 99041E   21174.52978905 -.00000139  00000-0  17030-4 0  9990
2 25876  51.7657 285.3056 0530986 346.5173  12.2022 14.04578179120772
HELIOS 1B               
1 25977U 99064A   21174.50293507  .00000027  00000-0  10537-4 0  9993
2 25977  98.3169 349.2586 0000950 154.2582 205.8678 14.82562869430099
